ISS (ZARYA)             
1 25544U 98067A   26040.56801308  .00009074  00000+0  17540-3 0  9992
2 25544  51.6311 211.3720 0011128  80.8535 279.3711 15.48504497551971
CSS (TIANHE)            
1 48274U 21035A   26040.41958423  .00018345  00000+0  22932-3 0  9995
2 48274  41.4684  20.0103 0004697  39.0740 321.0437 15.59384169273192
ISS (NAUKA)             
1 49044U 21066A   26040.56801308  .00009074  00000+0  17540-3 0  9998
2 49044  51.6311 211.3720 0011128  80.8535 279.3711 15.48504497230448
FREGAT DEB              
1 49271U 11037PF  26039.24170638  .00043431  00000+0  72139-1 0  9993
2 49271  51.6576  28.8822 0930442 351.7995   6.8516 12.38136467209048
CSS (WENTIAN)           
1 53239U 22085A   26040.41958423  .00018345  00000+0  22932-3 0  9998
2 53239  41.4684  20.0103 0004697  39.0740 321.0437 15.59384169173840
CSS (MENGTIAN)          
1 54216U 22143A   26040.41958423  .00018345  00000+0  22932-3 0  9999
2 54216  41.4684  20.0103 0004697  39.0740 321.0437 15.59384169158647
PROGRESS-MS 31          
1 64751U 25146A   26040.56801308  .00009074  00000+0  17540-3 0  9993
2 64751  51.6311 211.3720 0011128  80.8535 279.3711 15.48504497  6755
TIANZHOU-9              
1 64786U 25149A   26040.41958423  .00018345  00000+0  22932-3 0  9991
2 64786  41.4684  20.0103 0004697  39.0740 321.0437 15.59384169255301
DRAGON CRS-33           
1 65304U 25186A   26040.56801308  .00009074  00000+0  17540-3 0  9992
2 65304  51.6311 211.3720 0011128  80.8535 279.3711 15.48504497   114
PROGRESS-MS 32          
1 65586U 25204A   26040.56801308  .00009074  00000+0  17540-3 0  9995
2 65586  51.6311 211.3720 0011128  80.8535 279.3711 15.48504497   273
CYGNUS NG-23            
1 65616U 25208A   26040.56801308  .00009074  00000+0  17540-3 0  9993
2 65616  51.6311 211.3720 0011128  80.8535 279.3711 15.48504497   222
ISS OBJECT XK           
1 65731U 98067XK  26040.41544093  .00308190  00000+0  12454-2 0  9992
2 65731  51.6223 196.0493 0003941 283.9620  76.0945 15.84932782 22387
